     2              NAVIGATION DATA                         RINEX VERSION / TYPE
CCRINEXN V1.6.0 UX  CDDIS               28-DEC-24 23:31     PGM / RUN BY / DATE 
IGS BROADCAST EPHEMERIS FILE                                COMMENT             
    0.2887D-07  0.2980D-07 -0.1192D-06  0.0000D+00          ION ALPHA           
    0.1556D+06 -0.2130D+06 -0.6554D+05  0.5243D+06          ION BETA            
   -0.931322574616D-09-0.710542735760D-14   589824     2346 DELTA-UTC: A0,A1,T,W
    18                                                      LEAP SECONDS        
                                                            END OF HEADER       
30 24 12 27 20  0  0.0-0.252099707723D-03 0.829913915368D-11 0.000000000000D+00
    0.430000000000D+02-0.581250000000D+01 0.542594029791D-08-0.227951073829D+01
   -0.599771738052D-06 0.721980142407D-02 0.577419996262D-05 0.515374829865D+04
    0.504000000000D+06 0.104308128357D-06 0.139989586100D+01-0.670552253723D-07
    0.935071564981D+00 0.254218750000D+03-0.245591602146D+01-0.823820029697D-08
   -0.300012496725D-10 0.100000000000D+01 0.234600000000D+04 0.000000000000D+00
    0.200000000000D+01 0.000000000000D+00 0.372529029846D-08 0.430000000000D+02
    0.496818000000D+06 0.400000000000D+01 0.000000000000D+00 0.000000000000D+00
31 24 12 27 20  0  0.0-0.219132285565D-03 0.795807864051D-12 0.000000000000D+00
    0.116000000000D+03-0.890625000000D+01 0.501163732624D-08 0.312423738786D+01
   -0.581145286560D-06 0.107171902200D-01 0.600516796112D-05 0.515359925652D+04
    0.504000000000D+06-0.651925802231D-07 0.142491622059D+01-0.193715095520D-06
    0.953805433505D+00 0.261062500000D+03 0.789800312113D+00-0.797247494272D-08
   -0.145363197818D-09 0.100000000000D+01 0.234600000000D+04 0.000000000000D+00
    0.200000000000D+01 0.000000000000D+00-0.135041773319D-07 0.116000000000D+03
    0.496827000000D+06 0.400000000000D+01 0.000000000000D+00 0.000000000000D+00
32 24 12 27 20  0  0.0-0.551980920136D-03 0.648014975013D-11 0.000000000000D+00
    0.600000000000D+02-0.107500000000D+02 0.439411160381D-08 0.133235386077D+01
   -0.543892383575D-06 0.822504912503D-02 0.891461968422D-05 0.515376923561D+04
    0.504000000000D+06-0.216066837311D-06 0.345263193484D+00 0.204890966415D-07
    0.963904896199D+00 0.207781250000D+03-0.211656153069D+01-0.793747348477D-08
    0.534307970357D-09 0.100000000000D+01 0.234600000000D+04 0.000000000000D+00
    0.200000000000D+01 0.000000000000D+00 0.931322574616D-09 0.600000000000D+02
    0.496818000000D+06 0.400000000000D+01 0.000000000000D+00 0.000000000000D+00
 7 24 12 27 21 59 44.0-0.143898651004D-04 0.909494701773D-12 0.000000000000D+00
    0.580000000000D+02-0.200000000000D+01 0.510806991447D-08-0.105711506541D+01
    0.298023223877D-06 0.188793911366D-01 0.565126538277D-05 0.515375343513D+04
    0.511184000000D+06 0.169500708580D-06 0.140243821659D+01 0.469386577606D-06
    0.949899031153D+00 0.263000000000D+03-0.208683006579D+01-0.828355932921D-08
   -0.113576159474D-09 0.100000000000D+01 0.234600000000D+04 0.000000000000D+00
    0.200000000000D+01 0.000000000000D+00-0.107102096081D-07 0.580000000000D+02
    0.504018000000D+06 0.400000000000D+01 0.000000000000D+00 0.000000000000D+00
24 24 12 27 21 59 44.0-0.469736289233D-03 0.352429196937D-11 0.000000000000D+00
    0.150000000000D+02-0.406250000000D+00 0.560309053407D-08-0.177095021244D+00
    0.540167093277D-07 0.164216423873D-01 0.567547976971D-05 0.515367868424D+04
    0.511184000000D+06-0.316649675369D-07 0.130157990727D+01 0.247731804848D-06
    0.933711706555D+00 0.260812500000D+03 0.104217525737D+01-0.867178978628D-08
    0.210723063176D-10 0.100000000000D+01 0.234600000000D+04 0.000000000000D+00
    0.200000000000D+01 0.000000000000D+00 0.232830643654D-08 0.150000000000D+02
    0.510006000000D+06 0.400000000000D+01 0.000000000000D+00 0.000000000000D+00
25 24 12 27 21 59 44.0 0.497576314956D-03-0.454747350886D-12 0.000000000000D+00
    0.300000000000D+02 0.459375000000D+02 0.467055169008D-08-0.196943342809D+01
    0.230781733990D-05 0.122720104409D-01 0.986456871033D-05 0.515369124412D+04
    0.511184000000D+06 0.167638063431D-06 0.242994715552D+01-0.409781932831D-07
    0.949122692713D+00 0.180000000000D+03 0.110490349786D+01-0.774603693925D-08
   -0.319656172106D-09 0.100000000000D+01 0.234600000000D+04 0.000000000000D+00
    0.200000000000D+01 0.000000000000D+00 0.558793544769D-08 0.300000000000D+02
    0.507228000000D+06 0.400000000000D+01 0.000000000000D+00 0.000000000000D+00
31 24 12 27 21 59 44.0-0.219125766307D-03 0.795807864051D-12 0.000000000000D+00
    0.300000000000D+02-0.103750000000D+02 0.498663628485D-08-0.211109075835D+01
   -0.795349478722D-06 0.107177644968D-01 0.542402267456D-05 0.515359793663D+04
    0.511184000000D+06 0.128522515297D-06 0.142485768046D+01-0.689178705216D-07
    0.953804854189D+00 0.266031250000D+03 0.789840109337D+00-0.804247785863D-08
    0.267868300647D-10 0.100000000000D+01 0.234600000000D+04 0.000000000000D+00
    0.200000000000D+01 0.000000000000D+00-0.135041773319D-07 0.300000000000D+02
    0.504018000000D+06 0.400000000000D+01 0.000000000000D+00 0.000000000000D+00
 2 24 12 27 22  0  0.0-0.281889922917D-03 0.898126018001D-11 0.000000000000D+00
    0.850000000000D+02-0.141875000000D+02 0.449733018900D-08 0.183601416257D+01
   -0.907108187676D-06 0.165327226277D-01-0.145286321640D-06 0.515368313980D+04
    0.511200000000D+06 0.251457095146D-06-0.182433511262D+01-0.167638063431D-07
    0.966344532997D+00 0.375500000000D+03-0.106790575543D+01-0.815141096756D-08
   -0.292155026572D-09 0.100000000000D+01 0.234600000000D+04 0.000000000000D+00
    0.200000000000D+01 0.000000000000D+00-0.176951289177D-07 0.850000000000D+02
    0.505752000000D+06 0.400000000000D+01 0.000000000000D+00 0.000000000000D+00
 3 24 12 27 22  0  0.0 0.634095165878D-03 0.807176547823D-11 0.000000000000D+00
    0.970000000000D+02-0.107656250000D+03 0.365300930536D-08-0.160292784632D+01
   -0.566057860851D-05 0.565604935400D-02 0.886246562004D-05 0.515360733414D+04
    0.511200000000D+06 0.167638063431D-06-0.685051162971D+00 0.465661287308D-07
    0.987706463630D+00 0.223406250000D+03 0.114597198686D+01-0.753709966474D-08
   -0.978612191697D-10 0.100000000000D+01 0.234600000000D+04 0.000000000000D+00
    0.200000000000D+01 0.000000000000D+00 0.139698386192D-08 0.970000000000D+02
    0.504018000000D+06 0.400000000000D+01 0.000000000000D+00 0.000000000000D+00
 4 24 12 27 22  0  0.0 0.502767506987D-03 0.602540239925D-11 0.000000000000D+00
    0.197000000000D+03-0.121875000000D+01 0.432768026525D-08 0.139039077168D+01
    0.353902578354D-07 0.322636286728D-02 0.853091478348D-05 0.515367555428D+04
    0.511200000000D+06-0.689178705216D-07 0.390883576956D+00 0.558793544769D-07
    0.966805286361D+00 0.218750000000D+03-0.297297594189D+01-0.777353808478D-08
    0.486448833975D-09 0.100000000000D+01 0.234600000000D+04 0.000000000000D+00
    0.200000000000D+01 0.000000000000D+00-0.465661287308D-08 0.709000000000D+03
    0.504021000000D+06 0.400000000000D+01 0.000000000000D+00 0.000000000000D+00
 5 24 12 27 22  0  0.0-0.197290442884D-03-0.113686837722D-11 0.000000000000D+00
    0.730000000000D+02-0.129156250000D+03 0.393444959990D-08 0.204185260555D+01
   -0.677444040775D-05 0.560092728119D-02 0.830926001072D-05 0.515372836876D+04
    0.511200000000D+06 0.633299350738D-07-0.739178394593D+00-0.100582838059D-06
    0.974533354460D+00 0.227531250000D+03 0.132932430810D+01-0.771603568957D-08
   -0.564309220030D-10 0.100000000000D+01 0.234600000000D+04 0.000000000000D+00
    0.200000000000D+01 0.000000000000D+00-0.107102096081D-07 0.730000000000D+02
    0.504018000000D+06 0.400000000000D+01 0.000000000000D+00 0.000000000000D+00
 6 24 12 27 22  0  0.0-0.761966221034D-04-0.278532752418D-10 0.000000000000D+00
    0.320000000000D+02-0.469062500000D+02 0.404445418204D-08-0.227171773565D+00
   -0.241771340370D-05 0.341750762891D-02 0.158883631229D-05 0.515375534821D+04
    0.511200000000D+06-0.260770320892D-07-0.172116376890D+01-0.186264514923D-07
    0.989080202223D+00 0.365343750000D+03-0.736601302012D+00-0.814783939022D-08
   -0.195008122871D-09 0.100000000000D+01 0.234600000000D+04 0.000000000000D+00
    0.200000000000D+01 0.000000000000D+00 0.372529029846D-08 0.320000000000D+02
    0.504018000000D+06 0.400000000000D+01 0.000000000000D+00 0.000000000000D+00
 8 24 12 27 22  0  0.0 0.448307953775D-03 0.852651282912D-11 0.000000000000D+00
    0.950000000000D+02 0.117718750000D+03 0.475126933801D-08 0.170723940156D+01
    0.630877912044D-05 0.102421873016D-01 0.613369047642D-05 0.515373711586D+04
    0.511200000000D+06-0.121071934700D-06-0.282473826713D+01 0.230967998505D-06
    0.950273459184D+00 0.257062500000D+03 0.394847510024D+00-0.827427322812D-08
    0.228580949885D-10 0.100000000000D+01 0.234600000000D+04 0.000000000000D+00
    0.200000000000D+01 0.000000000000D+00 0.465661287308D-08 0.950000000000D+02
    0.504018000000D+06 0.400000000000D+01 0.000000000000D+00 0.000000000000D+00
 9 24 12 27 22  0  0.0 0.505036674440D-03 0.156887836056D-10 0.000000000000D+00
    0.750000000000D+02-0.612500000000D+01 0.439732602342D-08 0.228084358540D+01
   -0.217929482460D-06 0.321214296855D-02 0.856257975101D-05 0.515378824425D+04
    0.511200000000D+06-0.931322574616D-08 0.329748318198D+00 0.689178705216D-07
    0.960623407101D+00 0.213062500000D+03 0.202994387161D+01-0.774996567432D-08
    0.523593238331D-09 0.100000000000D+01 0.234600000000D+04 0.000000000000D+00
    0.200000000000D+01 0.000000000000D+00 0.931322574616D-09 0.750000000000D+02
    0.504018000000D+06 0.400000000000D+01 0.000000000000D+00 0.000000000000D+00
